[{"id":"1","name":"أفغانستان","sortname":"AF","phonecode":"93","lat":"33.0000","lng":"65.0000"},{"id":"2","name":"ألبانيا","sortname":"AL","phonecode":"355","lat":"41.0000","lng":"20.0000"},{"id":"3","name":"الجزائر","sortname":"DZ","phonecode":"213","lat":"28.0000","lng":"3.0000"},{"id":"4","name":"أندورا","sortname":"AD","phonecode":"376","lat":"42.5000","lng":"1.5000"},{"id":"5","name":"أنغولا","sortname":"AO","phonecode":"244","lat":"-12.5000","lng":"18.5000"},{"id":"6","name":"أنتيغوا وباربودا","sortname":"AG","phonecode":"1268","lat":"17.0500","lng":"-61.8000"},{"id":"7","name":"الأرجنتين","sortname":"AR","phonecode":"54","lat":"-34.0000","lng":"-64.0000"},{"id":"8","name":"أرمينيا","sortname":"AM","phonecode":"374","lat":"40.0000","lng":"45.0000"},{"id":"9","name":"أروبا","sortname":"AW","phonecode":"297","lat":"12.5000","lng":"-69.9667"},{"id":"10","name":"أستراليا","sortname":"AU","phonecode":"61","lat":"-27.0000","lng":"133.0000"},{"id":"11","name":"النمسا","sortname":"AT","phonecode":"43","lat":"47.3333","lng":"13.3333"},{"id":"12","name":"أذربيجان","sortname":"AZ","phonecode":"994","lat":"40.5000","lng":"47.5000"},{"id":"13","name":"باهاماس","sortname":"BS","phonecode":"1242","lat":"24.2500","lng":"-76.0000"},{"id":"14","name":"البحرين","sortname":"BH","phonecode":"973","lat":"26.0000","lng":"50.5500"},{"id":"15","name":"بنغلاديش","sortname":"BD","phonecode":"880","lat":"24.0000","lng":"90.0000"},{"id":"16","name":"باربادوس","sortname":"BB","phonecode":"1246","lat":"13.1667","lng":"-59.5333"},{"id":"17","name":"روسيا البيضاء","sortname":"BY","phonecode":"375","lat":"53.0000","lng":"28.0000"},{"id":"18","name":"بلجيكا","sortname":"BE","phonecode":"32","lat":"50.8333","lng":"4.0000"},{"id":"19","name":"بليز","sortname":"BZ","phonecode":"501","lat":"17.2500","lng":"-88.7500"},{"id":"20","name":"بنين","sortname":"BJ","phonecode":"229","lat":"9.5000","lng":"2.2500"},{"id":"21","name":"بوتان","sortname":"BT","phonecode":"975","lat":"27.5000","lng":"90.5000"},{"id":"22","name":"بوليفيا","sortname":"BO","phonecode":"591","lat":"-17.0000","lng":"-65.0000"},{"id":"23","name":"البوسنة والهرسك","sortname":"BA","phonecode":"387","lat":"44.0000","lng":"18.0000"},{"id":"24","name":"بوتسوانا","sortname":"BW","phonecode":"267","lat":"-22.0000","lng":"24.0000"},{"id":"25","name":"البرازيل","sortname":"BR","phonecode":"55","lat":"-10.0000","lng":"-55.0000"},{"id":"26","name":"بروناي","sortname":"BN","phonecode":"673","lat":"4.5000","lng":"114.6667"},{"id":"27","name":"بلغاريا","sortname":"BG","phonecode":"359","lat":"43.0000","lng":"25.0000"},{"id":"28","name":"بوركينا فاسو","sortname":"BF","phonecode":"226","lat":"13.0000","lng":"-2.0000"},{"id":"29","name":"بوروندي","sortname":"BI","phonecode":"257","lat":"-3.5000","lng":"30.0000"},{"id":"30","name":"كمبوديا","sortname":"KH","phonecode":"855","lat":"13.0000","lng":"105.0000"},{"id":"31","name":"الكاميرون","sortname":"CM","phonecode":"237","lat":"6.0000","lng":"12.0000"},{"id":"32","name":"كندا","sortname":"CA","phonecode":"1","lat":"60.0000","lng":"-95.0000"},{"id":"33","name":"الرأس الأخضر","sortname":"CV","phonecode":"238","lat":"16.0000","lng":"-24.0000"},{"id":"34","name":"جزر كايمان","sortname":"KY","phonecode":"1345","lat":"19.5000","lng":"-80.5000"},{"id":"35","name":"جمهورية أفريقيا الوسطى","sortname":"CF","phonecode":"236","lat":"7.0000","lng":"21.0000"},{"id":"36","name":"تشاد","sortname":"TD","phonecode":"235","lat":"15.0000","lng":"19.0000"},{"id":"37","name":"تشيلي","sortname":"CL","phonecode":"56","lat":"-30.0000","lng":"-71.0000"},{"id":"38","name":"الصين","sortname":"CN","phonecode":"86","lat":"35.0000","lng":"105.0000"},{"id":"39","name":"كولومبيا","sortname":"CO","phonecode":"57","lat":"4.0000","lng":"-72.0000"},{"id":"40","name":"جزر القمر","sortname":"KM","phonecode":"269","lat":"-12.1667","lng":"44.2500"},{"id":"41","name":"جمهورية الكونغو","sortname":"CG","phonecode":"242","lat":"-1.0000","lng":"15.0000"},{"id":"42","name":"جمهورية الكونغو الديمقراطية","sortname":"CD","phonecode":"242","lat":"0.0000","lng":"25.0000"},{"id":"43","name":"جزر كوك","sortname":"CK","phonecode":"682","lat":"-21.2333","lng":"-159.7667"},{"id":"44","name":"كوستاريكا","sortname":"CR","phonecode":"506","lat":"10.0000","lng":"-84.0000"},{"id":"45","name":"ساحل العاج","sortname":"CI","phonecode":"225","lat":"8.0000","lng":"-5.0000"},{"id":"46","name":"كرواتيا","sortname":"HR","phonecode":"385","lat":"45.1667","lng":"15.5000"},{"id":"47","name":"كوبا","sortname":"CU","phonecode":"53","lat":"21.5000","lng":"-80.0000"},{"id":"48","name":"قبرص","sortname":"CY","phonecode":"357","lat":"35.0000","lng":"33.0000"},{"id":"49","name":"جمهورية التشيك","sortname":"CZ","phonecode":"420","lat":"49.7500","lng":"15.5000"},{"id":"50","name":"الدنمارك","sortname":"DK","phonecode":"45","lat":"56.0000","lng":"10.0000"},{"id":"51","name":"جيبوتي","sortname":"DJ","phonecode":"253","lat":"11.5000","lng":"43.0000"},{"id":"52","name":"دومينيكا","sortname":"DM","phonecode":"1767","lat":"15.4167","lng":"-61.3333"},{"id":"53","name":"جمهورية الدومينيكان","sortname":"DO","phonecode":"1809","lat":"19.0000","lng":"-70.6667"},{"id":"54","name":"الإكوادور","sortname":"EC","phonecode":"593","lat":"-2.0000","lng":"-77.5000"},{"id":"55","name":"مصر","sortname":"EG","phonecode":"20","lat":"27.0000","lng":"30.0000"},{"id":"56","name":"السلفادور","sortname":"SV","phonecode":"503","lat":"13.8333","lng":"-88.9167"},{"id":"57","name":"غينيا الاستوائية","sortname":"GQ","phonecode":"240","lat":"2.0000","lng":"10.0000"},{"id":"58","name":"إريتريا","sortname":"ER","phonecode":"291","lat":"15.0000","lng":"39.0000"},{"id":"59","name":"إستونيا","sortname":"EE","phonecode":"372","lat":"59.0000","lng":"26.0000"},{"id":"60","name":"إثيوبيا","sortname":"ET","phonecode":"251","lat":"8.0000","lng":"38.0000"},{"id":"61","name":"فيجي","sortname":"FJ","phonecode":"679","lat":"-18.0000","lng":"175.0000"},{"id":"62","name":"فنلندا","sortname":"FI","phonecode":"358","lat":"64.0000","lng":"26.0000"},{"id":"63","name":"فرنسا","sortname":"FR","phonecode":"33","lat":"46.0000","lng":"2.0000"},{"id":"64","name":"الغابون","sortname":"GA","phonecode":"241","lat":"-1.0000","lng":"11.7500"},{"id":"65","name":"غامبيا","sortname":"GM","phonecode":"220","lat":"13.4667","lng":"-16.5667"},{"id":"66","name":"جورجيا","sortname":"GE","phonecode":"995","lat":"42.0000","lng":"43.5000"},{"id":"67","name":"ألمانيا","sortname":"DE","phonecode":"49","lat":"51.0000","lng":"9.0000"},{"id":"68","name":"غانا","sortname":"GH","phonecode":"233","lat":"8.0000","lng":"-2.0000"},{"id":"69","name":"اليونان","sortname":"GR","phonecode":"30","lat":"39.0000","lng":"22.0000"},{"id":"70","name":"جرينلاند","sortname":"GL","phonecode":"299","lat":"72.0000","lng":"-40.0000"},{"id":"71","name":"غرينادا","sortname":"GD","phonecode":"1473","lat":"12.1167","lng":"-61.6667"},{"id":"72","name":"غواتيمالا","sortname":"GT","phonecode":"502","lat":"15.5000","lng":"-90.2500"},{"id":"73","name":"غينيا","sortname":"GN","phonecode":"224","lat":"11.0000","lng":"-10.0000"},{"id":"74","name":"غينيا بيساو","sortname":"GW","phonecode":"245","lat":"12.0000","lng":"-15.0000"},{"id":"75","name":"غيانا","sortname":"GY","phonecode":"592","lat":"5.0000","lng":"-59.0000"},{"id":"76","name":"هايتي","sortname":"HT","phonecode":"509","lat":"19.0000","lng":"-72.4167"},{"id":"77","name":"هندوراس","sortname":"HN","phonecode":"504","lat":"15.0000","lng":"-86.5000"},{"id":"78","name":"المجر","sortname":"HU","phonecode":"36","lat":"47.0000","lng":"20.0000"},{"id":"79","name":"آيسلندا","sortname":"IS","phonecode":"354","lat":"65.0000","lng":"-18.0000"},{"id":"80","name":"الهند","sortname":"IN","phonecode":"91","lat":"20.0000","lng":"77.0000"},{"id":"81","name":"إندونيسيا","sortname":"ID","phonecode":"62","lat":"-5.0000","lng":"120.0000"},{"id":"82","name":"إيران","sortname":"IR","phonecode":"98","lat":"32.0000","lng":"53.0000"},{"id":"83","name":"العراق","sortname":"IQ","phonecode":"964","lat":"33.0000","lng":"44.0000"},{"id":"84","name":"أيرلندا","sortname":"IE","phonecode":"353","lat":"53.0000","lng":"-8.0000"},{"id":"85","name":"إسرائيل","sortname":"IL","phonecode":"972","lat":"31.5000","lng":"34.7500"},{"id":"86","name":"إيطاليا","sortname":"IT","phonecode":"39","lat":"42.8333","lng":"12.8333"},{"id":"87","name":"جامايكا","sortname":"JM","phonecode":"1876","lat":"18.2500","lng":"-77.5000"},{"id":"88","name":"اليابان","sortname":"JP","phonecode":"81","lat":"36.0000","lng":"138.0000"},{"id":"89","name":"الأردن","sortname":"JO","phonecode":"962","lat":"31.0000","lng":"36.0000"},{"id":"90","name":"كازاخستان","sortname":"KZ","phonecode":"7","lat":"48.0000","lng":"68.0000"},{"id":"91","name":"كينيا","sortname":"KE","phonecode":"254","lat":"1.0000","lng":"38.0000"},{"id":"92","name":"كيريباتي","sortname":"KI","phonecode":"686","lat":"1.4167","lng":"173.0000"},{"id":"93","name":"كوريا الشمالية","sortname":"KP","phonecode":"850","lat":"40.0000","lng":"127.0000"},{"id":"94","name":"كوريا الجنوبية","sortname":"KR","phonecode":"82","lat":"37.0000","lng":"127.5000"},{"id":"95","name":"الكويت","sortname":"KW","phonecode":"965","lat":"29.3375","lng":"47.6581"},{"id":"96","name":"قيرغيزستان","sortname":"KG","phonecode":"996","lat":"41.0000","lng":"75.0000"},{"id":"97","name":"لاوس","sortname":"LA","phonecode":"856","lat":"18.0000","lng":"105.0000"},{"id":"98","name":"لاتفيا","sortname":"LV","phonecode":"371","lat":"57.0000","lng":"25.0000"},{"id":"99","name":"لبنان","sortname":"LB","phonecode":"961","lat":"33.8333","lng":"35.8333"},{"id":"100","name":"ليسوتو","sortname":"LS","phonecode":"266","lat":"-29.5000","lng":"28.5000"},{"id":"101","name":"ليبيريا","sortname":"LR","phonecode":"231","lat":"6.5000","lng":"-9.5000"},{"id":"102","name":"ليبيا","sortname":"LY","phonecode":"218","lat":"25.0000","lng":"17.0000"},{"id":"103","name":"ليختنشتاين","sortname":"LI","phonecode":"423","lat":"47.1667","lng":"9.5333"},{"id":"104","name":"ليتوانيا","sortname":"LT","phonecode":"370","lat":"56.0000","lng":"24.0000"},{"id":"105","name":"لوكسمبورغ","sortname":"LU","phonecode":"352","lat":"49.7500","lng":"6.1667"},{"id":"106","name":"مقدونيا","sortname":"MK","phonecode":"389","lat":"41.8333","lng":"22.0000"},{"id":"107","name":"مدغشقر","sortname":"MG","phonecode":"261","lat":"-20.0000","lng":"47.0000"},{"id":"108","name":"مالاوي","sortname":"MW","phonecode":"265","lat":"-13.5000","lng":"34.0000"},{"id":"109","name":"ماليزيا","sortname":"MY","phonecode":"60","lat":"2.5000","lng":"112.5000"},{"id":"110","name":"جزر المالديف","sortname":"MV","phonecode":"960","lat":"3.2500","lng":"73.0000"},{"id":"111","name":"مالي","sortname":"ML","phonecode":"223","lat":"17.0000","lng":"-4.0000"},{"id":"112","name":"مالطا","sortname":"MT","phonecode":"356","lat":"35.8333","lng":"14.5833"},{"id":"113","name":"جزر مارشال","sortname":"MH","phonecode":"692","lat":"9.0000","lng":"168.0000"},{"id":"114","name":"موريتانيا","sortname":"MR","phonecode":"222","lat":"20.0000","lng":"-12.0000"},{"id":"115","name":"موريشيوس","sortname":"MU","phonecode":"230","lat":"-20.2833","lng":"57.5500"},{"id":"116","name":"المكسيك","sortname":"MX","phonecode":"52","lat":"23.0000","lng":"-102.0000"},{"id":"117","name":"ولايات ميكرونيسيا المتحدة","sortname":"FM","phonecode":"691","lat":"6.9167","lng":"158.2500"},{"id":"118","name":"مولدوفا","sortname":"MD","phonecode":"373","lat":"47.0000","lng":"29.0000"},{"id":"119","name":"منغوليا","sortname":"MN","phonecode":"976","lat":"46.0000","lng":"105.0000"},{"id":"120","name":"المغرب","sortname":"MA","phonecode":"212","lat":"32.0000","lng":"-5.0000"},{"id":"121","name":"موزمبيق","sortname":"MZ","phonecode":"258","lat":"-18.2500","lng":"35.0000"},{"id":"122","name":"ميانمار","sortname":"MM","phonecode":"95","lat":"22.0000","lng":"98.0000"},{"id":"123","name":"ناميبيا","sortname":"NA","phonecode":"264","lat":"-22.0000","lng":"17.0000"},{"id":"124","name":"نيبال","sortname":"NP","phonecode":"977","lat":"28.0000","lng":"84.0000"},{"id":"125","name":"هولندا","sortname":"NL","phonecode":"31","lat":"52.5000","lng":"5.7500"},{"id":"126","name":"نيوزيلندا","sortname":"NZ","phonecode":"64","lat":"-41.0000","lng":"174.0000"},{"id":"127","name":"نيكاراغوا","sortname":"NI","phonecode":"505","lat":"13.0000","lng":"-85.0000"},{"id":"128","name":"النيجر","sortname":"NE","phonecode":"227","lat":"16.0000","lng":"8.0000"},{"id":"129","name":"نيجيريا","sortname":"NG","phonecode":"234","lat":"10.0000","lng":"8.0000"},{"id":"130","name":"نييوي","sortname":"NU","phonecode":"683","lat":"-19.0333","lng":"-169.8667"},{"id":"131","name":"النرويج","sortname":"NO","phonecode":"47","lat":"62.0000","lng":"10.0000"},{"id":"132","name":"عمان","sortname":"OM","phonecode":"968","lat":"21.0000","lng":"57.0000"},{"id":"133","name":"باكستان","sortname":"PK","phonecode":"92","lat":"30.0000","lng":"70.0000"},{"id":"134","name":"بالاو","sortname":"PW","phonecode":"680","lat":"7.5000","lng":"134.5000"},{"id":"135","name":"فلسطين","sortname":"PS","phonecode":"970","lat":"32.0000","lng":"35.2500"},{"id":"136","name":"بنما","sortname":"PA","phonecode":"507","lat":"9.0000","lng":"-80.0000"},{"id":"137","name":"بابوا غينيا الجديدة","sortname":"PG","phonecode":"675","lat":"-6.0000","lng":"147.0000"},{"id":"138","name":"باراغواي","sortname":"PY","phonecode":"595","lat":"-23.0000","lng":"-58.0000"},{"id":"139","name":"بيرو","sortname":"PE","phonecode":"51","lat":"-10.0000","lng":"-76.0000"},{"id":"140","name":"الفلبين","sortname":"PH","phonecode":"63","lat":"13.0000","lng":"122.0000"},{"id":"141","name":"بولندا","sortname":"PL","phonecode":"48","lat":"52.0000","lng":"20.0000"},{"id":"142","name":"البرتغال","sortname":"PT","phonecode":"351","lat":"39.5000","lng":"-8.0000"},{"id":"143","name":"قطر","sortname":"QA","phonecode":"974","lat":"25.5000","lng":"51.2500"},{"id":"144","name":"رومانيا","sortname":"RO","phonecode":"40","lat":"46.0000","lng":"25.0000"},{"id":"145","name":"روسيا","sortname":"RU","phonecode":"70","lat":"60.0000","lng":"100.0000"},{"id":"146","name":"رواندا","sortname":"RW","phonecode":"250","lat":"-2.0000","lng":"30.0000"},{"id":"147","name":"سانت هيلانة وأسينشين وتريستان دا كونا","sortname":"SH","phonecode":"290","lat":"-15.9333","lng":"-5.7000"},{"id":"148","name":"سانت كيتس ونيفيس","sortname":"KN","phonecode":"1869","lat":"17.3333","lng":"-62.7500"},{"id":"149","name":"سانت لوسيا","sortname":"LC","phonecode":"1758","lat":"13.8833","lng":"-61.1333"},{"id":"150","name":"سانت فينسنت والغرينادين","sortname":"VC","phonecode":"1784","lat":"13.2500","lng":"-61.2000"},{"id":"151","name":"ساموا","sortname":"WS","phonecode":"684","lat":"-13.5833","lng":"-172.3333"},{"id":"152","name":"سان مارينو","sortname":"SM","phonecode":"378","lat":"43.7667","lng":"12.4167"},{"id":"153","name":"ساو تومي وبرينسيب","sortname":"ST","phonecode":"239","lat":"1.0000","lng":"7.0000"},{"id":"154","name":"السعودية","sortname":"SA","phonecode":"966","lat":"25.0000","lng":"45.0000"},{"id":"155","name":"السنغال","sortname":"SN","phonecode":"221","lat":"14.0000","lng":"-14.0000"},{"id":"156","name":"صربيا","sortname":"RS","phonecode":"381","lat":"44.0000","lng":"21.0000"},{"id":"157","name":"سيشل","sortname":"SC","phonecode":"248","lat":"-4.5833","lng":"55.6667"},{"id":"158","name":"سيراليون","sortname":"SL","phonecode":"232","lat":"8.5000","lng":"-11.5000"},{"id":"159","name":"سنغافورة","sortname":"SG","phonecode":"65","lat":"1.3667","lng":"103.8000"},{"id":"160","name":"سلوفاكيا","sortname":"SK","phonecode":"421","lat":"48.6667","lng":"19.5000"},{"id":"161","name":"سلوفينيا","sortname":"SI","phonecode":"386","lat":"46.0000","lng":"15.0000"},{"id":"162","name":"جزر سليمان","sortname":"SB","phonecode":"677","lat":"-8.0000","lng":"159.0000"},{"id":"163","name":"الصومال","sortname":"SO","phonecode":"252","lat":"10.0000","lng":"49.0000"},{"id":"164","name":"جنوب أفريقيا","sortname":"ZA","phonecode":"27","lat":"-29.0000","lng":"24.0000"},{"id":"165","name":"جنوب السودان","sortname":"SS","phonecode":"211","lat":"9.37","lng":"24.12"},{"id":"166","name":"إسبانيا","sortname":"ES","phonecode":"34","lat":"40.0000","lng":"-4.0000"},{"id":"167","name":"سريلانكا","sortname":"LK","phonecode":"94","lat":"7.0000","lng":"81.0000"},{"id":"168","name":"السودان","sortname":"SD","phonecode":"249","lat":"15.0000","lng":"30.0000"},{"id":"169","name":"سورينام","sortname":"SR","phonecode":"597","lat":"4.0000","lng":"-56.0000"},{"id":"170","name":"سوازيلاند","sortname":"SZ","phonecode":"268","lat":"-26.5000","lng":"31.5000"},{"id":"171","name":"السويد","sortname":"SE","phonecode":"46","lat":"62.0000","lng":"15.0000"},{"id":"172","name":"سويسرا","sortname":"CH","phonecode":"41","lat":"47.0000","lng":"8.0000"},{"id":"173","name":"سوريا","sortname":"SY","phonecode":"963","lat":"35.0000","lng":"38.0000"},{"id":"174","name":"تايوان","sortname":"TW","phonecode":"886","lat":"23.5000","lng":"121.0000"},{"id":"175","name":"طاجيكستان","sortname":"TJ","phonecode":"992","lat":"39.0000","lng":"71.0000"},{"id":"176","name":"تنزانيا","sortname":"TZ","phonecode":"255","lat":"-6.0000","lng":"35.0000"},{"id":"177","name":"تايلاند","sortname":"TH","phonecode":"66","lat":"15.0000","lng":"100.0000"},{"id":"178","name":"توغو","sortname":"TG","phonecode":"228","lat":"8.0000","lng":"1.1667"},{"id":"179","name":"توكيلاو","sortname":"TK","phonecode":"690","lat":"-9.0000","lng":"-172.0000"},{"id":"180","name":"تونغا","sortname":"TO","phonecode":"676","lat":"-20.0000","lng":"-175.0000"},{"id":"181","name":"ترينيداد وتوباغو","sortname":"TT","phonecode":"1868","lat":"11.0000","lng":"-61.0000"},{"id":"182","name":"تونس","sortname":"TN","phonecode":"216","lat":"34.0000","lng":"9.0000"},{"id":"183","name":"تركيا","sortname":"TR","phonecode":"90","lat":"39.0000","lng":"35.0000"},{"id":"184","name":"تركمانستان","sortname":"TM","phonecode":"7370","lat":"40.0000","lng":"60.0000"},{"id":"185","name":"توفالو","sortname":"TV","phonecode":"688","lat":"-8.0000","lng":"178.0000"},{"id":"186","name":"أوغندا","sortname":"UG","phonecode":"256","lat":"1.0000","lng":"32.0000"},{"id":"187","name":"أوكرانيا","sortname":"UA","phonecode":"380","lat":"49.0000","lng":"32.0000"},{"id":"188","name":"الإمارات العربية المتحدة","sortname":"AE","phonecode":"971","lat":"24.0000","lng":"54.0000"},{"id":"189","name":"المملكة المتحدة","sortname":"GB","phonecode":"44","lat":"54.0000","lng":"-2.0000"},{"id":"190","name":"الولايات المتحدة","sortname":"US","phonecode":"1","lat":"38.0000","lng":"-97.0000"},{"id":"191","name":"الأوروغواي","sortname":"UY","phonecode":"598","lat":"-33.0000","lng":"-56.0000"},{"id":"192","name":"أوزبكستان","sortname":"UZ","phonecode":"998","lat":"41.0000","lng":"64.0000"},{"id":"193","name":"فانواتو","sortname":"VU","phonecode":"678","lat":"-16.0000","lng":"167.0000"},{"id":"194","name":"فنزويلا","sortname":"VE","phonecode":"58","lat":"8.0000","lng":"-66.0000"},{"id":"195","name":"فيتنام","sortname":"VN","phonecode":"84","lat":"16.0000","lng":"106.0000"},{"id":"196","name":"الصحراء الغربية","sortname":"EH","phonecode":"212","lat":"24.5000","lng":"-13.0000"},{"id":"197","name":"اليمن","sortname":"YE","phonecode":"967","lat":"15.0000","lng":"48.0000"},{"id":"198","name":"زامبيا","sortname":"ZM","phonecode":"260","lat":"-15.0000","lng":"30.0000"},{"id":"199","name":"زيمبابوي","sortname":"ZW","phonecode":"263","lat":"-20.0000","lng":"30.0000"}]